IRIDIUM 26              
1 24903U 97043A   25236.62795129  .00000284  00000+0  88744-4 0  9998
2 24903  86.3900  81.8556 0002009  93.1522 266.9905 14.37187031466572
IRIDIUM 22              
1 24907U 97043E   25236.82349054  .00000268  00000+0  85615-4 0  9992
2 24907  86.3906  85.3749 0002188  90.7668 269.3780 14.35995394466628
DUMMY MASS 1            
1 24925U 97048A   25236.65296032  .00000316  00000+0  32098-4 0  9996
2 24925  86.3316 103.6725 0004228 260.7107  99.3640 14.87032738515302
DUMMY MASS 2            
1 24926U 97048B   25236.69382071  .00000315  00000+0  32170-4 0  9990
2 24926  86.3318 105.2745 0005022 278.6280  81.4376 14.86784576515084
IRIDIUM 29              
1 24944U 97051A   25236.96118492  .00000324  00000+0  10376-3 0  9991
2 24944  86.3946 115.0583 0002336  83.2266 276.9197 14.36514223463145
IRIDIUM 33              
1 24946U 97051C   25236.73972983  .00000214  00000+0  68475-4 0  9993
2 24946  86.3860 114.4170 0006741 200.4945 159.5981 14.34927422462578
IRIDIUM 28              
1 24948U 97051E   25236.89123185  .00000270  00000+0  83629-4 0  9994
2 24948  86.3946 112.5630 0001841  98.3900 261.7506 14.37424754463715
IRIDIUM 36              
1 24967U 97056C   25236.84379526  .00000287  00000+0  89175-4 0  9997
2 24967  86.4015 144.1849 0002280  91.6827 268.4632 14.37652420462085
